    CK21Q040  2023 06  9.2687  7.566489  1.003312  146.9162  183.3328   71.4735  20220221   6.0  4.0  C/2021 Q4 (Fuls)                                         MPEC 2021-UA9
    PK21Q050  2021 08 30.4358  1.234542  0.624294  180.8984  239.7719   10.7341  20220221  15.0  4.0  P/2021 Q5 (ATLAS)                                        MPEC 2022-C56
    CK21Q060  2024 03 21.8209  8.713833  0.998965  140.8305  133.5382  161.8471  20220221   6.0  4.0  C/2021 Q6 (PANSTARRS)                                    MPEC 2022-C56
    PK21R010  2021 12 17.6920  4.885799  0.418880  220.3291  143.4064    5.5211  20220221  11.0  4.0  P/2021 R1 (PANSTARRS)                                    MPEC 2021-W31
    CK21R020  2021 12 25.8097  7.311097  0.996226   32.3529   16.2819  134.4669  20220221   7.5  4.0  C/2021 R2 (PANSTARRS)                                    MPEC 2021-W31
    PK21R030  2021 05 26.7257  2.524664  0.331563    2.9143  304.2321   19.9272  20220221  16.0  4.0  P/2021 R3 (PANSTARRS)                                    MPEC 2021-W31
    PK21R040  2021 10 13.9363  2.326030  0.585927   56.6318  321.2559   21.0400  20220221  16.0  4.0  P/2021 R4 (Wierzchos)                                    MPEC 2021-W31
    PK21R050  2022 01 12.1415  3.322675  0.307063  167.3689  219.9594    7.8541  20220221  12.0  4.0  P/2021 R5 (Rankin)                                       MPEC 2022-CN4
    PK21R060  2021 10 31.8910  2.552158  0.593134  220.7297  176.1153   34.9270  20220221  14.5  4.0  P/2021 R6 (Groeller)                                     MPEC 2021-W31
    CK21R070  2021 04 15.1220  5.641759  0.995438  140.0596  170.1452  158.8554  20220221  10.5  4.0  C/2021 R7 (PANSTARRS)                                    MPEC 2022-C56
    PK21R080  2021 10  7.4366  2.131001  0.293690  190.7640  167.0293    2.2033  20220221  18.5  4.0  P/2021 R8 (Sheppard)                                     MPEC 2021-Y10
    CK21S010  2022 02 28.7725  6.119238  1.000813  148.1725  299.8740   52.0886  20220221   7.0  4.0  C/2021 S1 (ATLAS)                                        MPEC 2022-C56
    CK21S030  2024 02 14.7899  1.318589  0.999739    6.9096  215.6416   58.5421  20220221   5.5  4.0  C/2021 S3 (PANSTARRS)                                    MPEC 2022-CN4
    CK21S040  2023 12 31.8327  6.691723  0.959043   72.7450    5.4945   17.4773  20220221   6.5  4.0  C/2021 S4 (Tsuchinshan)                                  MPEC 2022-C56
    CK21T010  2021 10 14.0903  3.057786  0.996949   51.5091   56.8199  140.3495  20220221  12.5  4.0  C/2021 T1 (Lemmon)                                       MPEC 2021-Y10
    CK21T020  2022 06  7.8911  1.247682  1.000215  263.5918  223.2313  117.5282  20220221  12.0  4.0  C/2021 T2 (Fuls)                                         MPEC 2022-CN4
    CK21T040  2023 07 31.5691  1.481787  0.999762  329.7878  257.7943  160.7544  20220221   7.5  4.0  C/2021 T4 (Lemmon)                                       MPEC 2022-CN4
    PK21U010  2021 09 30.9899  2.445031  0.712738  145.0494  246.7896   30.5602  20220221  14.5  4.0  P/2021 U1 (Wierzchos)                                    MPEC 2022-CN4
    PK21U030  2021 10 24.8661  1.886833  0.549902  335.2134   75.1130   69.9620  20220221  15.5  4.0  P/2021 U3 (Attard-Maury)                                 MPEC 2022-C56
    CK21U040  2021 12 21.9399  1.787412  0.960197  237.2798  241.8077  152.8779  20220221  17.0  4.0  C/2021 U4 (Leonard)                                      MPEC 2021-W31
    CK21U050  2022 01 26.6167  2.363247  0.989059  321.4734  182.7545   39.0495  20220221  13.0  4.0  C/2021 U5 (Catalina)                                     MPEC 2022-CN4
    CK21V010  2022 04 30.3789  3.013440  0.995565  195.1094  207.6516   71.4469  20220221  13.0  4.0  C/2021 V1 (Rankin)                                       MPEC 2022-CN4
    PK21V020  2023 01 21.5529  3.496774  0.613096  259.8334  232.2923   12.6956  20220221  10.0  4.0  P/2021 V2 (Fuls)                                         MPEC 2022-CN4
    AK21X010  2023 05 27.3326  3.234529  1.000348  334.5906   10.5800  140.1211  20220221  11.5  2.0  A/2021 X1                                                MPEC 2022-CN4
    AK21X020  2022 07  8.1373  2.994594  1.001225  193.2783  228.7979  137.1430  20220221  16.0  2.0  A/2021 X2                                                MPEC 2022-CN4
    CK21Y010  2023 04 30.8277  2.033009  1.000402  245.8132  244.7654   77.1919  20220221   7.0  4.0  C/2021 Y1 (ATLAS)                                        MPEC 2022-CN4
    CK22A010  2022 01 31.1510  1.252867  0.998685  201.1925  285.5213  116.5228  20220221  18.0  4.0  C/2022 A1 (Sarneczky)                                    MPEC 2022-CN4
    CK22A020  2023 02 18.3164  1.735030  1.000200   88.3814  171.5820  108.1403  20220221   9.5  4.0  C/2022 A2 (PANSTARRS)                                    MPEC 2022-CN4
    PK22B010  2022 02 25.3383  1.896709  0.652850  325.4811  148.8501   10.9908  20220221  16.5  4.0  P/2022 B1 (Wierzchos)                                    MPEC 2022-CN4
    AK22B030  2022 01 17.6814  3.699283  0.999169  150.6951  286.1747  132.0711  20220221  16.5  2.0  A/2022 B3                                                MPEC 2022-D24
    PK22C010  2021 11  4.5973  3.985683  0.447644    9.3783  113.1483    4.7623  20220221  12.0  4.0  P/2022 C1 (PANSTARRS)                                    MPEC 2022-CN4
    PK22C020  2022 07 28.7326  3.396318  0.448557   87.2646  135.5263   10.0099  20220221  12.5  4.0  P/2022 C2 (PANSTARRS)                                    MPEC 2022-D01
    PK22C030  2022 07  2.5148  4.370147  0.543347   94.1656  138.9930   12.8118  20220221  11.5  4.0  P/2022 C3 (PANSTARRS)                                    MPEC 2022-D02
0001P         1986 02 14.5385  0.601793  0.966328  111.9155   58.9874  162.2226  20220221   4.0  6.0  1P/Halley                                                 98, 1083
0002P         2020 06 29.2151  0.333648  0.849635  186.7887  334.4693   11.6907  20220221  11.5  6.0  2P/Encke                                                 MPEC 2021-TD0
0004P         2021 09  8.8479  1.618929  0.576663  207.0075  192.9302    8.0083  20220221   8.0  6.0  4P/Faye                                                  MPEC 2022-CN4
0006P         2021 09 17.7562  1.354508  0.612707  178.0853  138.9346   19.5122  20220221   7.5 16.0  6P/d'Arrest                                              MPEC 2022-CN4
0007P         2021 05 27.0929  1.233754  0.638495  172.5810   93.3565   22.3631  20220221  10.0  6.0  7P/Pons-Winnecke                                         MPEC 2021-Y10
0008P         2021 08 27.6011  1.025996  0.820213  207.4883  270.2013   54.9116  20220221   8.0  8.0  8P/Tuttle                                                MPEC 2022-CN4
0009P         2022 03  4.9504  1.544230  0.509146  179.3501   68.7140   10.4700  20220221   5.5 10.0  9P/Tempel                                                MPEC 2022-CN4
0010P         2021 03 24.2375  1.412666  0.538455  195.5000  117.8099   12.0391  20220221   5.0 10.0  10P/Tempel                                               MPEC 2022-CN4
0011P         2020 11 26.3171  1.388400  0.577201  167.9656  238.8949   14.4220  20220221  17.0  4.0  11P/Tempel-Swift-LINEAR                                  MPEC 2021-UA9
0012P         2024 04 20.6354  0.781687  0.954437  198.9885  255.7974   74.1540  20220221   5.0  6.0  12P/Pons-Brooks                                           27,  604
0013P         2024 07  1.1899  1.175071  0.929855   64.4095   85.9342   44.6185  20220221   5.0  6.0  13P/Olbers                                                27,  604
0014P         2017 12  3.4058  2.737730  0.357108  159.0478  202.0455   27.9197  20220221   5.5 12.0  14P/Wolf                                                 MPEC 2021-F20
0015P         2021 07 13.4786  0.992129  0.717049  347.8366   13.7120    6.7978  20220221  12.0  4.0  15P/Finlay                                               MPEC 2022-CN4
0016P         2021 04 18.3071  1.878412  0.486357  245.2021  138.8698    3.0116  20220221   7.5 10.0  16P/Brooks                                               MPEC 2022-C56
0017P         2021 02 19.8836  2.081174  0.427625   24.4994  326.6219   19.0319  20220221  10.0  6.0  17P/Holmes                                               MPEC 2022-CN4
0019P         2022 02  1.8265  1.306276  0.637625  351.9183   74.2470   29.3047  20220221   4.5 10.0  19P/Borrelly                                             MPEC 2022-C56
0021P         2025 03 25.1800  1.009763  0.711126  172.8694  195.3454   32.0484  20220221  11.4  4.0  21P/Giacobini-Zinner                                     MPEC 2021-F20
0022P         2022 03 18.1299  1.552409  0.548752  163.0223  120.8320    4.7421  20220221   3.0 10.4  22P/Kopff                                                MPEC 2021-S45
0023P         1989 08  5.2592  0.480681  0.971637  128.8933  312.3166   19.1595  20220221  10.0  6.0  23P/Brorsen-Metcalf                                      MPC 14747
0024P         2026 01  9.5895  1.184054  0.707923   58.3566   78.4668   11.5165  20220221   6.5 14.0  24P/Schaumasse                                           MPC110085
0026P         2023 12 25.5641  1.084349  0.640306    2.1653  211.5392   22.4324  20220221  12.0 16.0  26P/Grigg-Skjellerup                                     MPEC 2021-WD8
0027P         2011 07 23.2937  0.748276  0.918518  195.9099  250.6270   29.2617  20220221  12.0  8.0  27P/Crommelin                                            MPC 78188
0028P         2021 03 11.8760  1.578655  0.773719  347.4231  346.3324   14.3121  20220221   8.5  6.0  28P/Neujmin                                              MPEC 2022-CN4
0029P         2019 04  5.9133  5.771657  0.044795   49.8922  312.3827    9.3662  20220221   4.0  4.0  29P/Schwassmann-Wachmann                                 MPEC 2022-CN4
